[{"OBJECT_NAME":"RAPTOR4","OBJECT_ID":"2024-028B","EPOCH":"2026-03-09T13:25:37.970400","MEAN_MOTION":13.70164328,"ECCENTRICITY":0.0014524,"INCLINATION":39.9901,"RA_OF_ASC_NODE":141.9922,"ARG_OF_PERICENTER":23.3417,"MEAN_ANOMALY":336.7986,"EPHEMERIS_TYPE":0,"CLASSIFICATION_TYPE":"U","NORAD_CAT_ID":58956,"ELEMENT_SET_NO":999,"REV_AT_EPOCH":10338,"BSTAR":6.0683e-5,"MEAN_MOTION_DOT":-2.4e-7,"MEAN_MOTION_DDOT":0},{"OBJECT_NAME":"COSMOS 951 DEB","OBJECT_ID":"1977-087D","EPOCH":"2026-03-09T21:39:33.225696","MEAN_MOTION":13.80561344,"ECCENTRICITY":0.00352219,"INCLINATION":82.967,"RA_OF_ASC_NODE":227.6944,"ARG_OF_PERICENTER":218.1509,"MEAN_ANOMALY":265.643,"EPHEMERIS_TYPE":0,"CLASSIFICATION_TYPE":"U","NORAD_CAT_ID":37236,"ELEMENT_SET_NO":999,"REV_AT_EPOCH":43245,"BSTAR":0.00093613529,"MEAN_MOTION_DOT":1.0e-5,"MEAN_MOTION_DDOT":0}]
